{
  "type": "FeatureCollection",
  "features": [
    {
      "type": "Feature",
      "properties": {
        "norad_id": 43207,
        "name": "BEIDOU-3 M4 (C22)",
        "group": "beidou",
        "lat": 20.787854454144306,
        "lon": -125.51726259143632,
        "alt_km": 21535.79462232961,
        "timestamp": "2025-12-21T16:47:55.003571+00:00",
        "meta_object_name": "BEIDOU-3 M4 (C22)",
        "meta_object_id": "2018-018A",
        "meta_epoch": "2025-12-20T09:29:07.105632",
        "meta_mean_motion": 1.86231247,
        "meta_eccentricity": 0.0004167,
        "meta_inclination": 56.4917,
        "meta_ra_of_asc_node": 69.0512,
        "meta_arg_of_pericenter": 3.4046,
        "meta_mean_anomaly": 356.639,
        "meta_ephemeris_type": 0,
        "meta_classification_type": "U",
        "meta_norad_cat_id": 43207,
        "meta_element_set_no": 999,
        "meta_rev_at_epoch": 5341,
        "meta_bstar": 0,
        "meta_mean_motion_dot": -4.3e-07,
        "meta_mean_motion_ddot": 0,
        "tle_line1": "1 43207U 18018A   25354.39522113 -.00000043  00000+0  00000+0 0  9995",
        "tle_line2": "2 43207  56.4917  69.0512 0004167   3.4046 356.6390  1.86231247 53417"
      },
      "geometry": {
        "type": "Point",
        "coordinates": [
          -125.51726259143632,
          20.787854454144306
        ]
      }
    },
    {
      "type": "Feature",
      "properties": {
        "norad_id": 43208,
        "name": "BEIDOU-3 M3 (C21)",
        "group": "beidou",
        "lat": 51.52922069548728,
        "lon": -167.3274435737117,
        "alt_km": 21539.87069382029,
        "timestamp": "2025-12-21T16:47:55.003582+00:00",
        "meta_object_name": "BEIDOU-3 M3 (C21)",
        "meta_object_id": "2018-018B",
        "meta_epoch": "2025-12-21T12:51:19.783296",
        "meta_mean_motion": 1.86231409,
        "meta_eccentricity": 0.0007015,
        "meta_inclination": 56.4924,
        "meta_ra_of_asc_node": 69.0175,
        "meta_arg_of_pericenter": 313.8809,
        "meta_mean_anomaly": 46.108,
        "meta_ephemeris_type": 0,
        "meta_classification_type": "U",
        "meta_norad_cat_id": 43208,
        "meta_element_set_no": 999,
        "meta_rev_at_epoch": 5343,
        "meta_bstar": 0,
        "meta_mean_motion_dot": -3.4e-07,
        "meta_mean_motion_ddot": 0,
        "tle_line1": "1 43208U 18018B   25355.53564564 -.00000034  00000+0  00000+0 0  9999",
        "tle_line2": "2 43208  56.4924  69.0175 0007015 313.8809  46.1080  1.86231409 53430"
      },
      "geometry": {
        "type": "Point",
        "coordinates": [
          -167.3274435737117,
          51.52922069548728
        ]
      }
    },
    {
      "type": "Feature",
      "properties": {
        "norad_id": 43245,
        "name": "BEIDOU-3 M9 (C29)",
        "group": "beidou",
        "lat": -27.66654745078439,
        "lon": -75.9379486594873,
        "alt_km": 21528.385258129874,
        "timestamp": "2025-12-21T16:47:55.003593+00:00",
        "meta_object_name": "BEIDOU-3 M9 (C29)",
        "meta_object_id": "2018-029A",
        "meta_epoch": "2025-12-21T05:09:30.862656",
        "meta_mean_motion": 1.86228362,
        "meta_eccentricity": 0.0001512,
        "meta_inclination": 54.3581,
        "meta_ra_of_asc_node": 306.1726,
        "meta_arg_of_pericenter": 290.8288,
        "meta_mean_anomaly": 69.1519,
        "meta_ephemeris_type": 0,
        "meta_classification_type": "U",
        "meta_norad_cat_id": 43245,
        "meta_element_set_no": 999,
        "meta_rev_at_epoch": 5258,
        "meta_bstar": 0,
        "meta_mean_motion_dot": -6.2e-07,
        "meta_mean_motion_ddot": 0,
        "tle_line1": "1 43245U 18029A   25355.21494054 -.00000062  00000+0  00000+0 0  9994",
        "tle_line2": "2 43245  54.3581 306.1726 0001512 290.8288  69.1519  1.86228362 52586"
      },
      "geometry": {
        "type": "Point",
        "coordinates": [
          -75.9379486594873,
          -27.66654745078439
        ]
      }
    },
    {
      "type": "Feature",
      "properties": {
        "norad_id": 43246,
        "name": "BEIDOU-3 M10 (C30)",
        "group": "beidou",
        "lat": 6.98606301741928,
        "lon": -48.80103949990152,
        "alt_km": 21515.703084822897,
        "timestamp": "2025-12-21T16:47:55.003604+00:00",
        "meta_object_name": "BEIDOU-3 M10 (C30)",
        "meta_object_id": "2018-029B",
        "meta_epoch": "2025-12-21T03:36:13.499136",
        "meta_mean_motion": 1.86229222,
        "meta_eccentricity": 0.0004272,
        "meta_inclination": 54.3551,
        "meta_ra_of_asc_node": 306.2014,
        "meta_arg_of_pericenter": 3.3786,
        "meta_mean_anomaly": 356.6208,
        "meta_ephemeris_type": 0,
        "meta_classification_type": "U",
        "meta_norad_cat_id": 43246,
        "meta_element_set_no": 999,
        "meta_rev_at_epoch": 5256,
        "meta_bstar": 0,
        "meta_mean_motion_dot": -6.3e-07,
        "meta_mean_motion_ddot": 0,
        "tle_line1": "1 43246U 18029B   25355.15015624 -.00000063  00000+0  00000+0 0  9991",
        "tle_line2": "2 43246  54.3551 306.2014 0004272   3.3786 356.6208  1.86229222 52564"
      },
      "geometry": {
        "type": "Point",
        "coordinates": [
          -48.80103949990152,
          6.98606301741928
        ]
      }
    },
    {
      "type": "Feature",
      "properties": {
        "norad_id": 43539,
        "name": "BEIDOU-2 IGSO-7 (C16)",
        "group": "beidou",
        "lat": -50.806438496076076,
        "lon": 105.82612827670982,
        "alt_km": 35564.12633914797,
        "timestamp": "2025-12-21T16:47:55.003615+00:00",
        "meta_object_name": "BEIDOU-2 IGSO-7 (C16)",
        "meta_object_id": "2018-057A",
        "meta_epoch": "2025-12-15T07:47:07.120608",
        "meta_mean_motion": 1.00256546,
        "meta_eccentricity": 0.00926218,
        "meta_inclination": 55.1766,
        "meta_ra_of_asc_node": 164.6485,
        "meta_arg_of_pericenter": 235.2644,
        "meta_mean_anomaly": 271.8458,
        "meta_ephemeris_type": 0,
        "meta_classification_type": "U",
        "meta_norad_cat_id": 43539,
        "meta_element_set_no": 999,
        "meta_rev_at_epoch": 2728,
        "meta_bstar": 0,
        "meta_mean_motion_dot": -2.3e-07,
        "meta_mean_motion_ddot": 0,
        "tle_line1": "1 43539U 18057A   25349.32438797 -.00000023  00000+0  00000+0 0  9995",
        "tle_line2": "2 43539  55.1766 164.6485 0092621 235.2644 271.8458  1.00256546 27289"
      },
      "geometry": {
        "type": "Point",
        "coordinates": [
          105.82612827670982,
          -50.806438496076076
        ]
      }
    },
    {
      "type": "Feature",
      "properties": {
        "norad_id": 43581,
        "name": "BEIDOU-3 M5 (C23)",
        "group": "beidou",
        "lat": -29.925033557199264,
        "lon": 33.01152445119244,
        "alt_km": 21536.388303968844,
        "timestamp": "2025-12-21T16:47:55.003627+00:00",
        "meta_object_name": "BEIDOU-3 M5 (C23)",
        "meta_object_id": "2018-062A",
        "meta_epoch": "2025-12-20T20:06:28.321920",
        "meta_mean_motion": 1.86228978,
        "meta_eccentricity": 0.00019384,
        "meta_inclination": 54.0899,
        "meta_ra_of_asc_node": 188.3678,
        "meta_arg_of_pericenter": 1.5281,
        "meta_mean_anomaly": 358.5256,
        "meta_ephemeris_type": 0,
        "meta_classification_type": "U",
        "meta_norad_cat_id": 43581,
        "meta_element_set_no": 999,
        "meta_rev_at_epoch": 5031,
        "meta_bstar": 0,
        "meta_mean_motion_dot": 9.5e-07,
        "meta_mean_motion_ddot": 0,
        "tle_line1": "1 43581U 18062A   25354.83782780  .00000095  00000+0  00000+0 0  9992",
        "tle_line2": "2 43581  54.0899 188.3678 0001938   1.5281 358.5256  1.86228978 50311"
      },
      "geometry": {
        "type": "Point",
        "coordinates": [
          33.01152445119244,
          -29.925033557199264
        ]
      }
    },
    {
      "type": "Feature",
      "properties": {
        "norad_id": 43582,
        "name": "BEIDOU-3 M6 (C24)",
        "group": "beidou",
        "lat": -38.44155899847519,
        "lon": 153.19368827755267,
        "alt_km": 21535.936111475232,
        "timestamp": "2025-12-21T16:47:55.003638+00:00",
        "meta_object_name": "BEIDOU-3 M6 (C24)",
        "meta_object_id": "2018-062B",
        "meta_epoch": "2025-12-20T16:49:14.112192",
        "meta_mean_motion": 1.86229946,
        "meta_eccentricity": 0.00078563,
        "meta_inclination": 54.0894,
        "meta_ra_of_asc_node": 188.3615,
        "meta_arg_of_pericenter": 48.1727,
        "meta_mean_anomaly": 311.9483,
        "meta_ephemeris_type": 0,
        "meta_classification_type": "U",
        "meta_norad_cat_id": 43582,
        "meta_element_set_no": 999,
        "meta_rev_at_epoch": 5031,
        "meta_bstar": 0,
        "meta_mean_motion_dot": 9.6e-07,
        "meta_mean_motion_ddot": 0,
        "tle_line1": "1 43582U 18062B   25354.70085778  .00000096  00000+0  00000+0 0  9993",
        "tle_line2": "2 43582  54.0894 188.3615 0007856  48.1727 311.9483  1.86229946 50316"
      },
      "geometry": {
        "type": "Point",
        "coordinates": [
          153.19368827755267,
          -38.44155899847519
        ]
      }
    }
  ]
}